CUTE-1 (CO-55)          
1 27844U 03031E   23116.84177261  .00000494  00000+0  24004-3 0  9990
2 27844  98.6797 124.8490 0008561 275.3567  84.6634 14.22740270 28433
CUBESAT XI-IV (CO-57)   
1 27848U 03031J   23116.83528182  .00000445  00000+0  21988-3 0  9999
2 27848  98.6835 125.2774 0008516 292.2034  67.8240 14.22256230 28206
CUBESAT XI-V            
1 28895U 05043F   23117.34446508  .00002096  00000+0  39546-3 0  9998
2 28895  98.1451 249.8224 0015464 229.1366 130.8498 14.65474005933590
CUTE-1.7+APD II (CO-65) 
1 32785U 08021C   23117.49899480  .00004004  00000+0  40106-3 0  9992
2 32785  97.7020  84.5674 0010477 272.7256  87.2764 14.91902273813336
AAUSAT-II               
1 32788U 08021F   23116.70117602  .00009741  00000+0  73060-3 0  9995
2 32788  97.5565  97.3159 0008443 159.3800 200.7768 15.02829411815373
DELFI-C3 (DO-64)        
1 32789U 08021G   23116.63359451  .00041284  00000+0  13628-2 0  9999
2 32789  97.3089 138.6632 0003712 310.2126  49.8791 15.31282650819485
SEEDS II (CO-66)        
1 32791U 08021J   23116.65028460  .00005345  00000+0  47984-3 0  9998
2 32791  97.6516  89.0054 0010959 218.0994 141.9453 14.96092775813954
SWISSCUBE               
1 35932U 09051B   23117.46370323  .00001435  00000+0  32572-3 0  9993
2 35932  98.5283 346.6054 0007864 153.7119 206.4479 14.57608487721865
BEESAT-1                
1 35933U 09051C   23117.62852434  .00001219  00000+0  27876-3 0  9991
2 35933  98.5213 348.1513 0005880 162.4919 197.6483 14.57532038722008
ITUPSAT1                
1 35935U 09051E   23116.88027070  .00001163  00000+0  27171-3 0  9996
2 35935  98.5315 347.3492 0007998 172.7536 187.3779 14.56587818721492
TISAT 1                 
1 36799U 10035E   23116.84608026  .00005506  00000+0  49849-3 0  9992
2 36799  98.1439 344.4702 0012484 138.3229 221.8945 14.95773344694558
M-CUBED & EXP-1 PRIME   
1 37855U 11061F   23116.63816401  .00019418  00000+0  64958-3 0  9996
2 37855 101.7037  49.5553 0124834 197.2660 162.4298 15.23854182628707
STRAND-1                
1 39090U 13009E   23116.77492116  .00000492  00000+0  18556-3 0  9996
2 39090  98.3914 311.5422 0010038  61.9559 298.2641 14.35559667532342
BRITE-AUSTRIA           
1 39091U 13009F   23116.76971433  .00000298  00000+0  11854-3 0  9998
2 39091  98.3941 310.7564 0011553  67.5462 292.6947 14.35459504532378
SOMP                    
1 39134U 13015E   23117.18977266  .00082964  00000+0  13101-2 0  9996
2 39134  64.8509 100.2533 0016077 261.2627  98.6695 15.52887580555428
