[{"OBJECT_NAME":"CUTE-1 (CO-55)","OBJECT_ID":"2003-031E","EPOCH":"2023-04-26T20:12:09.153504","MEAN_MOTION":14.2274027,"ECCENTRICITY":0.0008561,"INCLINATION":98.6797,"RA_OF_ASC_NODE":124.849,"ARG_OF_PERICENTER":275.3567,"MEAN_ANOMALY":84.6634,"EPHEMERIS_TYPE":0,"CLASSIFICATION_TYPE":"U","NORAD_CAT_ID":27844,"ELEMENT_SET_NO":999,"REV_AT_EPOCH":2843,"BSTAR":0.00024004,"MEAN_MOTION_DOT":4.94e-6,"MEAN_MOTION_DDOT":0},{"OBJECT_NAME":"CUBESAT XI-IV (CO-57)","OBJECT_ID":"2003-031J","EPOCH":"2023-04-26T20:02:48.349248","MEAN_MOTION":14.2225623,"ECCENTRICITY":0.0008516,"INCLINATION":98.6835,"RA_OF_ASC_NODE":125.2774,"ARG_OF_PERICENTER":292.2034,"MEAN_ANOMALY":67.824,"EPHEMERIS_TYPE":0,"CLASSIFICATION_TYPE":"U","NORAD_CAT_ID":27848,"ELEMENT_SET_NO":999,"REV_AT_EPOCH":2820,"BSTAR":0.00021988,"MEAN_MOTION_DOT":4.45e-6,"MEAN_MOTION_DDOT":0},{"OBJECT_NAME":"CUBESAT XI-V","OBJECT_ID":"2005-043F","EPOCH":"2023-04-27T08:16:01.782912","MEAN_MOTION":14.65474005,"ECCENTRICITY":0.0015464,"INCLINATION":98.1451,"RA_OF_ASC_NODE":249.8224,"ARG_OF_PERICENTER":229.1366,"MEAN_ANOMALY":130.8498,"EPHEMERIS_TYPE":0,"CLASSIFICATION_TYPE":"U","NORAD_CAT_ID":28895,"ELEMENT_SET_NO":999,"REV_AT_EPOCH":93359,"BSTAR":0.00039546,"MEAN_MOTION_DOT":2.096e-5,"MEAN_MOTION_DDOT":0},{"OBJECT_NAME":"CUTE-1.7+APD II (CO-65)","OBJECT_ID":"2008-021C","EPOCH":"2023-04-27T11:58:33.150720","MEAN_MOTION":14.91902273,"ECCENTRICITY":0.0010477,"INCLINATION":97.702,"RA_OF_ASC_NODE":84.5674,"ARG_OF_PERICENTER":272.7256,"MEAN_ANOMALY":87.2764,"EPHEMERIS_TYPE":0,"CLASSIFICATION_TYPE":"U","NORAD_CAT_ID":32785,"ELEMENT_SET_NO":999,"REV_AT_EPOCH":81333,"BSTAR":0.00040106,"MEAN_MOTION_DOT":4.004e-5,"MEAN_MOTION_DDOT":0},{"OBJECT_NAME":"AAUSAT-II","OBJECT_ID":"2008-021F","EPOCH":"2023-04-26T16:49:41.608128","MEAN_MOTION":15.02829411,"ECCENTRICITY":0.0008443,"INCLINATION":97.5565,"RA_OF_ASC_NODE":97.3159,"ARG_OF_PERICENTER":159.38,"MEAN_ANOMALY":200.7768,"EPHEMERIS_TYPE":0,"CLASSIFICATION_TYPE":"U","NORAD_CAT_ID":32788,"ELEMENT_SET_NO":999,"REV_AT_EPOCH":81537,"BSTAR":0.0007306,"MEAN_MOTION_DOT":9.741e-5,"MEAN_MOTION_DDOT":0},{"OBJECT_NAME":"DELFI-C3 (DO-64)","OBJECT_ID":"2008-021G","EPOCH":"2023-04-26T15:12:22.565664","MEAN_MOTION":15.3128265,"ECCENTRICITY":0.0003712,"INCLINATION":97.3089,"RA_OF_ASC_NODE":138.6632,"ARG_OF_PERICENTER":310.2126,"MEAN_ANOMALY":49.8791,"EPHEMERIS_TYPE":0,"CLASSIFICATION_TYPE":"U","NORAD_CAT_ID":32789,"ELEMENT_SET_NO":999,"REV_AT_EPOCH":81948,"BSTAR":0.0013628,"MEAN_MOTION_DOT":0.00041284,"MEAN_MOTION_DDOT":0},{"OBJECT_NAME":"SEEDS II (CO-66)","OBJECT_ID":"2008-021J","EPOCH":"2023-04-26T15:36:24.589440","MEAN_MOTION":14.96092775,"ECCENTRICITY":0.0010959,"INCLINATION":97.6516,"RA_OF_ASC_NODE":89.0054,"ARG_OF_PERICENTER":218.0994,"MEAN_ANOMALY":141.9453,"EPHEMERIS_TYPE":0,"CLASSIFICATION_TYPE":"U","NORAD_CAT_ID":32791,"ELEMENT_SET_NO":999,"REV_AT_EPOCH":81395,"BSTAR":0.00047984,"MEAN_MOTION_DOT":5.345e-5,"MEAN_MOTION_DDOT":0},{"OBJECT_NAME":"SWISSCUBE","OBJECT_ID":"2009-051B","EPOCH":"2023-04-27T11:07:43.959072","MEAN_MOTION":14.57608487,"ECCENTRICITY":0.0007864,"INCLINATION":98.5283,"RA_OF_ASC_NODE":346.6054,"ARG_OF_PERICENTER":153.7119,"MEAN_ANOMALY":206.4479,"EPHEMERIS_TYPE":0,"CLASSIFICATION_TYPE":"U","NORAD_CAT_ID":35932,"ELEMENT_SET_NO":999,"REV_AT_EPOCH":72186,"BSTAR":0.00032572,"MEAN_MOTION_DOT":1.435e-5,"MEAN_MOTION_DDOT":0},{"OBJECT_NAME":"BEESAT-1","OBJECT_ID":"2009-051C","EPOCH":"2023-04-27T15:05:04.502976","MEAN_MOTION":14.57532038,"ECCENTRICITY":0.000588,"INCLINATION":98.5213,"RA_OF_ASC_NODE":348.1513,"ARG_OF_PERICENTER":162.4919,"MEAN_ANOMALY":197.6483,"EPHEMERIS_TYPE":0,"CLASSIFICATION_TYPE":"U","NORAD_CAT_ID":35933,"ELEMENT_SET_NO":999,"REV_AT_EPOCH":72200,"BSTAR":0.00027876,"MEAN_MOTION_DOT":1.219e-5,"MEAN_MOTION_DDOT":0},{"OBJECT_NAME":"ITUPSAT1","OBJECT_ID":"2009-051E","EPOCH":"2023-04-26T21:07:35.388480","MEAN_MOTION":14.56587818,"ECCENTRICITY":0.0007998,"INCLINATION":98.5315,"RA_OF_ASC_NODE":347.3492,"ARG_OF_PERICENTER":172.7536,"MEAN_ANOMALY":187.3779,"EPHEMERIS_TYPE":0,"CLASSIFICATION_TYPE":"U","NORAD_CAT_ID":35935,"ELEMENT_SET_NO":999,"REV_AT_EPOCH":72149,"BSTAR":0.00027171,"MEAN_MOTION_DOT":1.163e-5,"MEAN_MOTION_DDOT":0},{"OBJECT_NAME":"TISAT 1","OBJECT_ID":"2010-035E","EPOCH":"2023-04-26T20:18:21.334464","MEAN_MOTION":14.95773344,"ECCENTRICITY":0.0012484,"INCLINATION":98.1439,"RA_OF_ASC_NODE":344.4702,"ARG_OF_PERICENTER":138.3229,"MEAN_ANOMALY":221.8945,"EPHEMERIS_TYPE":0,"CLASSIFICATION_TYPE":"U","NORAD_CAT_ID":36799,"ELEMENT_SET_NO":999,"REV_AT_EPOCH":69455,"BSTAR":0.00049849,"MEAN_MOTION_DOT":5.506e-5,"MEAN_MOTION_DDOT":0},{"OBJECT_NAME":"M-CUBED & EXP-1 PRIME","OBJECT_ID":"2011-061F","EPOCH":"2023-04-26T15:18:57.370464","MEAN_MOTION":15.23854182,"ECCENTRICITY":0.0124834,"INCLINATION":101.7037,"RA_OF_ASC_NODE":49.5553,"ARG_OF_PERICENTER":197.266,"MEAN_ANOMALY":162.4298,"EPHEMERIS_TYPE":0,"CLASSIFICATION_TYPE":"U","NORAD_CAT_ID":37855,"ELEMENT_SET_NO":999,"REV_AT_EPOCH":62870,"BSTAR":0.00064958,"MEAN_MOTION_DOT":0.00019418,"MEAN_MOTION_DDOT":0},{"OBJECT_NAME":"STRAND-1","OBJECT_ID":"2013-009E","EPOCH":"2023-04-26T18:35:53.188224","MEAN_MOTION":14.35559667,"ECCENTRICITY":0.0010038,"INCLINATION":98.3914,"RA_OF_ASC_NODE":311.5422,"ARG_OF_PERICENTER":61.9559,"MEAN_ANOMALY":298.2641,"EPHEMERIS_TYPE":0,"CLASSIFICATION_TYPE":"U","NORAD_CAT_ID":39090,"ELEMENT_SET_NO":999,"REV_AT_EPOCH":53234,"BSTAR":0.00018556,"MEAN_MOTION_DOT":4.92e-6,"MEAN_MOTION_DDOT":0},{"OBJECT_NAME":"BRITE-AUSTRIA","OBJECT_ID":"2013-009F","EPOCH":"2023-04-26T18:28:23.318112","MEAN_MOTION":14.35459504,"ECCENTRICITY":0.0011553,"INCLINATION":98.3941,"RA_OF_ASC_NODE":310.7564,"ARG_OF_PERICENTER":67.5462,"MEAN_ANOMALY":292.6947,"EPHEMERIS_TYPE":0,"CLASSIFICATION_TYPE":"U","NORAD_CAT_ID":39091,"ELEMENT_SET_NO":999,"REV_AT_EPOCH":53237,"BSTAR":0.00011854,"MEAN_MOTION_DOT":2.98e-6,"MEAN_MOTION_DDOT":0},{"OBJECT_NAME":"SOMP","OBJECT_ID":"2013-015E","EPOCH":"2023-04-27T04:33:16.357824","MEAN_MOTION":15.5288758,"ECCENTRICITY":0.0016077,"INCLINATION":64.8509,"RA_OF_ASC_NODE":100.2533,"ARG_OF_PERICENTER":261.2627,"MEAN_ANOMALY":98.6695,"EPHEMERIS_TYPE":0,"CLASSIFICATION_TYPE":"U","NORAD_CAT_ID":39134,"ELEMENT_SET_NO":999,"REV_AT_EPOCH":55542,"BSTAR":0.0013101,"MEAN_MOTION_DOT":0.00082964,"MEAN_MOTION_DDOT":0}]
